NORAD_CAT_ID,OBJECT_NAME,OBJECT_TYPE,EPOCH,MEAN_MOTION,ECCENTRICITY,INCLINATION,RA_OF_ASC_NODE,ARG_OF_PERICENTER,MEAN_ANOMALY,BSTAR,MEAN_MOTION_DOT,MEAN_MOTION_DDOT,TLE_LINE0,TLE_LINE1,TLE_LINE2,SEMIMAJOR_AXIS,PERIOD,APOGEE,PERIGEE,DECAYED
51751.0,STARLINK-3506,PAYLOAD,2023-05-12 02:17:26,15.08843156,0.0001227,53.2163,264.6193,62.4303,297.6813,9.3441e-05,1.2e-05,0.0,0 STARLINK-3506,1 51751U 22016AP  23132.09544947  .00001200  00000-0  93441-4 0  9991,2 51751  53.2163 264.6193 0001227  62.4303 297.6813 15.08843156 67811,6917.871,95.437,540.585,538.887,0.0
51751.0,STARLINK-3506,PAYLOAD,2023-05-12 15:00:32,15.0883951,9.35e-05,53.2175,262.2316,98.9529,261.1569,-2.1994e-05,-6.38e-06,0.0,0 STARLINK-3506,1 51751U 22016AP  23132.62537109 -.00000638  00000-0 -21994-4 0  9992,2 51751  53.2175 262.2316 0000935  98.9529 261.1569 15.08839510 69000,6917.882,95.438,540.394,539.1,0.0
51751.0,STARLINK-3506,PAYLOAD,2023-05-13 13:15:55,15.08849046,0.000102,53.2162,258.0695,115.784,244.3257,0.00013224,1.818e-05,0.0,0 STARLINK-3506,1 51751U 22016AP  23133.55272681  .00001818  00000-0  13224-3 0  9991,2 51751  53.2162 258.0695 0001020 115.7840 244.3257 15.08849046 68033,6917.853,95.437,540.423,539.012,0.0
51751.0,STARLINK-3506,PAYLOAD,2023-05-13 14:51:18,15.08850784,9.57e-05,53.2161,257.7725,104.4079,255.702,0.00015543,2.187e-05,0.0,0 STARLINK-3506,1 51751U 22016AP  23133.61896612  .00002187  00000-0  15543-3 0  9990,2 51751  53.2161 257.7725 0000957 104.4079 255.7020 15.08850784 68045,6917.847,95.437,540.374,539.05,0.0
51751.0,STARLINK-3506,PAYLOAD,2023-05-14 13:06:42,15.08843401,9.81e-05,53.2158,253.6096,80.0895,280.0208,0.00019196,2.769e-05,0.0,0 STARLINK-3506,1 51751U 22016AP  23134.54632999  .00002769  00000-0  19196-3 0  9993,2 51751  53.2158 253.6096 0000981  80.0895 280.0208 15.08843401 69294,6917.87,95.437,540.414,539.056,0.0
51751.0,STARLINK-3506,PAYLOAD,2023-05-14 14:42:05,15.0884606,0.0001067,53.2153,253.3142,69.3221,290.7885,0.00016338,2.314e-05,0.0,0 STARLINK-3506,1 51751U 22016AP  23134.61256909  .00002314  00000-0  16338-3 0  9995,2 51751  53.2153 253.3142 0001067  69.3221 290.7885 15.08846060 68198,6917.862,95.437,540.465,538.989,0.0
51751.0,STARLINK-3506,PAYLOAD,2023-05-15 12:57:30,15.08838344,0.0001174,53.2154,249.1494,113.5017,246.6098,-1.6862e-05,-5.56e-06,0.0,0 STARLINK-3506,1 51751U 22016AP  23135.53993206 -.00000556  00000-0 -16862-4 0  9996,2 51751  53.2154 249.1494 0001174 113.5017 246.6098 15.08838344 68334,6917.885,95.438,540.563,538.938,0.0
51751.0,STARLINK-3506,PAYLOAD,2023-05-15 14:32:53,15.08840794,9.91e-05,53.2153,248.8548,87.7985,272.3121,5.3293e-05,5.61e-06,0.0,0 STARLINK-3506,1 51751U 22016AP  23135.60617339  .00000561  00000-0  53293-4 0  9997,2 51751  53.2153 248.8548 0000991  87.7985 272.3121 15.08840794 69450,6917.878,95.438,540.429,539.057,0.0
51751.0,STARLINK-3506,PAYLOAD,2023-05-16 12:48:17,15.08839747,9.18e-05,53.2156,244.6918,90.6692,269.4405,-6.1082e-06,-3.85e-06,0.0,0 STARLINK-3506,1 51751U 22016AP  23136.53353411 -.00000385  00000-0 -61082-5 0  9990,2 51751  53.2156 244.6918 0000918  90.6692 269.4405 15.08839747 68485,6917.881,95.438,540.381,539.111,0.0
51751.0,STARLINK-3506,PAYLOAD,2023-05-17 11:03:41,15.08836142,9.43e-05,53.2154,240.529,92.0032,268.1068,5.5185e-05,5.91e-06,0.0,0 STARLINK-3506,1 51751U 22016AP  23137.46089791  .00000591  00000-0  55185-4 0  9993,2 51751  53.2154 240.5290 0000943  92.0032 268.1068 15.08836142 69739,6917.892,95.438,540.41,539.105,0.0
51751.0,STARLINK-3506,PAYLOAD,2023-05-17 15:49:50,15.08841716,9.79e-05,53.2154,239.6367,88.8199,271.2905,0.00012507,1.703e-05,0.0,0 STARLINK-3506,1 51751U 22016AP  23137.65961531  .00001703  00000-0  12507-3 0  9991,2 51751  53.2154 239.6367 0000979  88.8199 271.2905 15.08841716 68657,6917.875,95.437,540.417,539.063,0.0
51751.0,STARLINK-3506,PAYLOAD,2023-05-18 12:29:52,15.08834212,9.85e-05,53.216,235.7712,79.1983,280.912,5.307e-05,5.57e-06,0.0,0 STARLINK-3506,1 51751U 22016AP  23138.52074492  .00000557  00000-0  53070-4 0  9996,2 51751  53.2160 235.7712 0000985  79.1983 280.9120 15.08834212 69892,6917.898,95.438,540.444,539.082,0.0
51751.0,STARLINK-3506,PAYLOAD,2023-05-19 05:59:06,15.08842357,0.0001115,53.216,232.4994,78.5956,281.5161,0.00012241,1.661e-05,0.0,0 STARLINK-3506,1 51751U 22016AP  23139.24937903  .00001661  00000-0  12241-3 0  9992,2 51751  53.2160 232.4994 0001115  78.5956 281.5161 15.08842357 70003,6917.873,95.437,540.51,538.967,0.0
51751.0,STARLINK-3506,PAYLOAD,2023-05-19 12:20:38,15.08846388,0.0001042,53.2161,231.3105,76.3158,283.795,8.6547e-05,1.09e-05,0.0,0 STARLINK-3506,1 51751U 22016AP  23139.51433686  .00001090  00000-0  86547-4 0  9998,2 51751  53.2161 231.3105 0001042  76.3158 283.7950 15.08846388 68932,6917.861,95.437,540.447,539.005,0.0
51751.0,STARLINK-3506,PAYLOAD,2023-05-20 10:36:02,15.08840966,0.0001013,53.2163,227.1477,75.03,285.0804,0.00013421,1.849e-05,0.0,0 STARLINK-3506,1 51751U 22016AP  23140.44169821  .00001849  00000-0  13421-3 0  9991,2 51751  53.2163 227.1477 0001013  75.0300 285.0804 15.08840966 70181,6917.877,95.437,540.443,539.042,0.0
51751.0,STARLINK-3506,PAYLOAD,2023-05-20 15:22:11,15.08855359,0.0001046,53.2163,226.2537,92.403,267.7082,0.00020226,2.934e-05,0.0,0 STARLINK-3506,1 51751U 22016AP  23140.64040694  .00002934  00000-0  20226-3 0  9996,2 51751  53.2163 226.2537 0001046  92.4030 267.7082 15.08855359 70218,6917.833,95.437,540.422,538.975,0.0
51751.0,STARLINK-3506,PAYLOAD,2023-05-20 23:19:07,15.0884646,0.0001085,53.2152,224.7622,112.0409,248.0698,0.00013138,1.804e-05,0.0,0 STARLINK-3506,1 51751U 22016AP  23140.97161297  .00001804  00000-0  13138-3 0  9994,2 51751  53.2152 224.7622 0001085 112.0409 248.0698 15.08846460 70269,6917.861,95.437,540.476,538.975,0.0
51751.0,STARLINK-3506,PAYLOAD,2023-05-21 08:51:26,15.08839484,0.0001167,53.2162,222.9769,134.8823,225.2264,0.00015772,2.223e-05,0.0,0 STARLINK-3506,1 51751U 22016AP  23141.36905466  .00002223  00000-0  15772-3 0  9994,2 51751  53.2162 222.9769 0001167 134.8823 225.2264 15.08839484 70326,6917.882,95.438,540.554,538.94,0.0
51751.0,STARLINK-3506,PAYLOAD,2023-05-21 12:02:12,15.08844727,0.0001068,53.2163,222.3891,96.4467,263.6647,4.6453e-05,4.52e-06,0.0,0 STARLINK-3506,1 51751U 22016AP  23141.50153387  .00000452  00000-0  46453-4 0  9990,2 51751  53.2163 222.3891 0001068  96.4467 263.6647 15.08844727 69239,6917.866,95.437,540.47,538.992,0.0
51751.0,STARLINK-3506,PAYLOAD,2023-05-21 15:12:58,15.08846747,0.0001044,53.2164,221.7937,101.7937,258.3172,5.3146e-05,5.58e-06,0.0,0 STARLINK-3506,1 51751U 22016AP  23141.63401158  .00000558  00000-0  53146-4 0  9990,2 51751  53.2164 221.7937 0001044 101.7937 258.3172 15.08846747 69250,6917.86,95.437,540.447,539.003,0.0
51751.0,STARLINK-3506,PAYLOAD,2023-05-22 08:42:13,15.08835392,0.0001339,53.2169,218.5194,114.1274,245.9859,-2.0169e-05,-6.09e-06,0.0,0 STARLINK-3506,1 51751U 22016AP  23142.36266154 -.00000609  00000-0 -20169-4 0  9994,2 51751  53.2169 218.5194 0001339 114.1274 245.9859 15.08835392 70477,6917.894,95.438,540.686,538.833,0.0
51751.0,STARLINK-3506,PAYLOAD,2023-05-22 11:53:00,15.08837421,9.42e-05,53.2167,217.9287,90.4255,269.6845,2.6446e-05,1.33e-06,0.0,0 STARLINK-3506,1 51751U 22016AP  23142.49513985  .00000133  00000-0  26446-4 0  9999,2 51751  53.2167 217.9287 0000942  90.4255 269.6845 15.08837421 69386,6917.888,95.438,540.405,539.102,0.0
51751.0,STARLINK-3506,PAYLOAD,2023-05-23 10:08:24,15.08833452,0.0001035,53.2159,213.7654,95.1935,264.9175,5.7266e-05,6.24e-06,0.0,0 STARLINK-3506,1 51751U 22016AP  23143.42250381  .00000624  00000-0  57266-4 0  9990,2 51751  53.2159 213.7654 0001035  95.1935 264.9175 15.08833452 70634,6917.9,95.438,540.481,539.049,0.0
51751.0,STARLINK-3506,PAYLOAD,2023-05-23 21:16:06,15.08838217,0.0001107,53.2161,211.684,119.1483,240.962,3.8603e-05,3.27e-06,0.0,0 STARLINK-3506,1 51751U 22016AP  23143.88618222  .00000327  00000-0  38603-4 0  9996,2 51751  53.2161 211.6840 0001107 119.1483 240.9620 15.08838217 69592,6917.886,95.438,540.517,538.985,0.0
51751.0,STARLINK-3506,PAYLOAD,2023-05-24 08:23:48,15.08794401,0.0001307,53.2163,209.6017,105.9847,254.1289,0.0006714,0.000104,0.0,0 STARLINK-3506,1 51751U 22016AP  23144.34987249  .00010400  00000-0  67140-3 0  9996,2 51751  53.2163 209.6017 0001307 105.9847 254.1289 15.08794401 70772,6918.02,95.44,540.789,538.981,0.0
51751.0,STARLINK-3506,PAYLOAD,2023-05-26 03:19:13,15.08841717,0.0001132,53.2166,201.5749,86.7717,273.3405,7.7383e-05,9.44e-06,0.0,0 STARLINK-3506,1 51751U 22016AP  23146.13834736  .00000944  00000-0  77383-4 0  9990,2 51751  53.2166 201.5749 0001132  86.7717 273.3405 15.08841717 71043,6917.875,95.437,540.523,538.957,0.0
51751.0,STARLINK-3506,PAYLOAD,2023-05-26 11:16:08,15.0884346,0.0001124,53.2164,200.088,82.9225,277.1895,6.2889e-05,7.13e-06,0.0,0 STARLINK-3506,1 51751U 22016AP  23146.46954635  .00000713  00000-0  62889-4 0  9996,2 51751  53.2164 200.0880 0001124  82.9225 277.1895 15.08843460 69986,6917.87,95.437,540.512,538.957,0.0
51751.0,STARLINK-3506,PAYLOAD,2023-05-27 09:31:32,15.08839826,0.0001077,53.2161,195.9244,84.2382,275.8733,9.0353e-05,1.15e-05,0.0,0 STARLINK-3506,1 51751U 22016AP  23147.39690665  .00001150  00000-0  90353-4 0  9992,2 51751  53.2161 195.9244 0001077  84.2382 275.8733 15.08839826 71233,6917.881,95.438,540.491,539.001,0.0
51751.0,STARLINK-3506,PAYLOAD,2023-05-27 20:39:14,15.08841726,0.0001063,53.216,193.8426,85.2243,274.8871,6.2579e-05,7.08e-06,0.0,0 STARLINK-3506,1 51751U 22016AP  23147.86058574  .00000708  00000-0  62579-4 0  9998,2 51751  53.2160 193.8426 0001063  85.2243 274.8871 15.08841726 70191,6917.875,95.437,540.475,539.005,0.0
51751.0,STARLINK-3506,PAYLOAD,2023-05-28 06:11:33,15.08842213,0.000107,53.2158,192.0583,85.1329,274.9785,4.342e-05,4.03e-06,0.0,0 STARLINK-3506,1 51751U 22016AP  23148.25802565  .00000403  00000-0  43420-4 0  9995,2 51751  53.2158 192.0583 0001070  85.1329 274.9785 15.08842213 70259,6917.874,95.437,540.479,538.998,0.0
